CCSDS_OMM_VERS = 2.0
CREATION_DATE  = 
ORIGINATOR     = 

OBJECT_NAME    = CZ-2C R/B
OBJECT_ID      = 2022-058K
CENTER_NAME    = EARTH
REF_FRAME      = TEME
TIME_SYSTEM    = UTC
MEAN_ELEMENT_THEORY = SGP/SGP4

EPOCH          = 2025-11-30T17:40:52.290912
MEAN_MOTION    = 15.47610921
ECCENTRICITY   = .004685
INCLINATION    = 50.1898
RA_OF_ASC_NODE = 104.7222
ARG_OF_PERICENTER = 148.8667
MEAN_ANOMALY   = 211.5091

EPHEMERIS_TYPE = 0
CLASSIFICATION_TYPE = U
NORAD_CAT_ID   = 52794
ELEMENT_SET_NO = 999
REV_AT_EPOCH   = 19477
BSTAR          = .54299E-3
MEAN_MOTION_DOT = .29435E-3
MEAN_MOTION_DDOT = 0

CCSDS_OMM_VERS = 2.0
CREATION_DATE  = 
ORIGINATOR     = 

OBJECT_NAME    = CZ-2C R/B
OBJECT_ID      = 2022-132E
CENTER_NAME    = EARTH
REF_FRAME      = TEME
TIME_SYSTEM    = UTC
MEAN_ELEMENT_THEORY = SGP/SGP4

EPOCH          = 2025-11-30T10:30:57.651264
MEAN_MOTION    = 15.53682692
ECCENTRICITY   = .0023996
INCLINATION    = 97.2950
RA_OF_ASC_NODE = 330.4126
ARG_OF_PERICENTER = 97.0852
MEAN_ANOMALY   = 263.3132

EPHEMERIS_TYPE = 0
CLASSIFICATION_TYPE = U
NORAD_CAT_ID   = 54039
ELEMENT_SET_NO = 999
REV_AT_EPOCH   = 17492
BSTAR          = .46839E-3
MEAN_MOTION_DOT = .30275E-3
MEAN_MOTION_DDOT = 0

CCSDS_OMM_VERS = 2.0
CREATION_DATE  = 
ORIGINATOR     = 

OBJECT_NAME    = GSLV R/B
OBJECT_ID      = 2022-138AN
CENTER_NAME    = EARTH
REF_FRAME      = TEME
TIME_SYSTEM    = UTC
MEAN_ELEMENT_THEORY = SGP/SGP4

EPOCH          = 2025-11-30T14:46:22.548000
MEAN_MOTION    = 14.96030049
ECCENTRICITY   = .0022899
INCLINATION    = 87.3841
RA_OF_ASC_NODE = 199.5331
ARG_OF_PERICENTER = 145.8822
MEAN_ANOMALY   = 214.3887

EPHEMERIS_TYPE = 0
CLASSIFICATION_TYPE = U
NORAD_CAT_ID   = 54149
ELEMENT_SET_NO = 999
REV_AT_EPOCH   = 16911
BSTAR          = .2184E-3
MEAN_MOTION_DOT = .2491E-4
MEAN_MOTION_DDOT = 0

CCSDS_OMM_VERS = 2.0
CREATION_DATE  = 
ORIGINATOR     = 

OBJECT_NAME    = XRISM
OBJECT_ID      = 2023-137A
CENTER_NAME    = EARTH
REF_FRAME      = TEME
TIME_SYSTEM    = UTC
MEAN_ELEMENT_THEORY = SGP/SGP4

EPOCH          = 2025-11-30T19:19:59.672928
MEAN_MOTION    = 15.10169631
ECCENTRICITY   = .0007591
INCLINATION    = 31.0005
RA_OF_ASC_NODE = 202.5891
ARG_OF_PERICENTER = 124.3400
MEAN_ANOMALY   = 235.7957

EPHEMERIS_TYPE = 0
CLASSIFICATION_TYPE = U
NORAD_CAT_ID   = 57800
ELEMENT_SET_NO = 999
REV_AT_EPOCH   = 12282
BSTAR          = .32755E-3
MEAN_MOTION_DOT = .5577E-4
MEAN_MOTION_DDOT = 0

CCSDS_OMM_VERS = 2.0
CREATION_DATE  = 
ORIGINATOR     = 

OBJECT_NAME    = ACS3
OBJECT_ID      = 2024-077B
CENTER_NAME    = EARTH
REF_FRAME      = TEME
TIME_SYSTEM    = UTC
MEAN_ELEMENT_THEORY = SGP/SGP4

EPOCH          = 2025-11-30T20:01:22.104768
MEAN_MOTION    = 13.84599297
ECCENTRICITY   = .007593
INCLINATION    = 97.2792
RA_OF_ASC_NODE = 293.0959
ARG_OF_PERICENTER = 1.8449
MEAN_ANOMALY   = 358.2978

EPHEMERIS_TYPE = 0
CLASSIFICATION_TYPE = U
NORAD_CAT_ID   = 59588
ELEMENT_SET_NO = 999
REV_AT_EPOCH   = 8049
BSTAR          = .32724E-1
MEAN_MOTION_DOT = .37723E-3
MEAN_MOTION_DDOT = 0

