CZ-2C R/B               
1 52794U 22058K   25334.73671633  .00029435  00000+0  54299-3 0  9991
2 52794  50.1898 104.7222 0046850 148.8667 211.5091 15.47610921194774
CZ-2C R/B               
1 54039U 22132E   25334.43816726  .00030275  00000+0  46839-3 0  9994
2 54039  97.2950 330.4126 0023996  97.0852 263.3132 15.53682692174924
GSLV R/B                
1 54149U 22138AN  25334.61553875  .00002491  00000+0  21840-3 0  9999
2 54149  87.3841 199.5331 0022899 145.8822 214.3887 14.96030049169114
XRISM                   
1 57800U 23137A   25334.80555177  .00005577  00000+0  32755-3 0  9999
2 57800  31.0005 202.5891 0007591 124.3400 235.7957 15.10169631122820
ACS3                    
1 59588U 24077B   25334.83428362  .00037723  00000+0  32724-1 0  9998
2 59588  97.2792 293.0959 0075930   1.8449 358.2978 13.84599297 80490
